OBJECT_NAME,OBJECT_ID,EPOCH,MEAN_MOTION,ECCENTRICITY,INCLINATION,RA_OF_ASC_NODE,ARG_OF_PERICENTER,MEAN_ANOMALY,EPHEMERIS_TYPE,CLASSIFICATION_TYPE,NORAD_CAT_ID,ELEMENT_SET_NO,REV_AT_EPOCH,BSTAR,MEAN_MOTION_DOT,MEAN_MOTION_DDOT
COSMOS 2058,1990-010A,2026-06-09T17:21:35.645472,15.11961806,.00101572,82.4661,316.7166,26.2763,333.8980,0,U,20465,999,95614,.18328847E-3,.3175E-4,0
SL-14 R/B,1990-010B,2026-06-09T13:07:23.244384,14.83641389,.0019774,82.5016,181.1203,1.8592,358.2693,0,U,20466,999,94210,.3837874E-4,.341E-5,0
SL-14 R/B,1990-018B,2026-06-09T15:40:17.637888,14.82211248,.00169793,82.5205,137.1497,144.9595,215.2740,0,U,20511,999,93620,.42835273E-4,.366E-5,0
HST,1990-037B,2026-06-09T06:06:10.692288,15.30659901,.0001992,28.4711,134.7882,63.4353,296.6447,0,U,20580,999,78735,.15014E-3,.481E-4,0
SL-16 R/B,1990-046B,2026-06-09T14:18:38.350080,14.15022332,.00139704,70.9986,104.8898,173.1579,186.9737,0,U,20625,999,86139,.18366542E-3,.308E-5,0
COSMOS 2084,1990-055A,2026-06-09T16:36:01.233216,15.06085635,.00054916,62.7911,21.6738,265.1399,94.9075,0,U,20663,999,95017,.14049462E-3,.1861E-4,0
SL-6 R/B(2),1990-055D,2026-06-09T17:39:21.627936,15.03978234,.0039429,62.7827,300.7324,4.1446,355.9972,0,U,20666,999,95203,.12390371E-3,.154E-4,0
SL-8 R/B,1990-078B,2026-06-09T18:02:32.625600,14.92030123,.03525835,82.9014,168.3607,63.4946,300.1974,0,U,20775,999,82301,.50367297E-3,.17897E-3,0
SL-8 R/B,1991-006B,2026-06-09T14:31:33.808224,13.77505354,.0023361,82.9421,101.6738,134.7797,42.6081,0,U,21088,999,77672,.27387904E-4,.43E-6,0
OKEAN-3,1991-039A,2026-06-09T16:38:47.756256,15.05292217,.00145574,82.5161,247.6476,24.6323,335.5596,0,U,21397,999,87887,.11997698E-3,.1747E-4,0
COSMOS 2151,1991-042A,2026-06-09T18:58:25.725792,15.00416760,.00137711,82.4961,354.8198,106.1442,254.1299,0,U,21422,999,87700,.97294516E-4,.1252E-4,0
SL-14 R/B,1991-042B,2026-06-09T15:47:25.483776,14.81897740,.00156356,82.4922,133.9563,301.9963,57.9731,0,U,21423,999,86669,.43745179E-4,.37E-5,0
ERS-1,1991-050A,2026-06-09T15:47:30.632352,14.39512451,.00307597,98.7798,181.1719,290.2181,69.5699,0,U,21574,999,82896,.94844301E-4,.251E-5,0
ARIANE 40 R/B,1991-050F,2026-06-09T16:46:06.943872,14.42952690,.00039374,98.1877,209.4070,137.5039,222.6457,0,U,21610,999,83226,.8798488E-4,.253E-5,0
INTERCOSMOS 25,1991-086A,2026-06-09T16:24:29.980512,12.12187121,.14842863,82.6053,254.3499,278.5958,65.0252,0,U,21819,999,50783,.94045989E-4,.472E-5,0
SL-8 R/B,1992-008B,2026-06-09T13:45:31.205376,13.75974842,.00334352,82.9265,199.4485,236.6139,233.8751,0,U,21876,999,72205,.84117018E-4,.97E-6,0
SL-8 R/B,1992-020B,2026-06-09T14:03:32.199840,13.75548116,.0030159,82.9305,85.5032,43.1924,136.0800,0,U,21938,999,71376,.31892671E-4,.46E-6,0
USA 81,1992-023A,2026-06-09T17:31:43.966272,14.32396213,.00027619,85.0077,78.3110,91.3338,268.8171,0,U,21949,999,10796,.47634431E-4,.149E-5,0
COSMOS 2219,1992-076A,2026-06-09T18:18:57.310848,14.14095736,.00162545,71.0574,185.5922,56.2657,304.0012,0,U,22219,999,73139,.44870867E-4,.38E-6,0
SL-16 R/B,1992-076B,2026-06-09T19:40:34.171680,14.16871552,.0014515,71.0006,354.3019,308.2634,67.2513,0,U,22220,999,73488,-.74231886E-4,-.197E-5,0
COSMOS 2221,1992-080A,2026-06-09T14:00:10.721952,14.96514114,.00127429,82.5032,191.0496,240.1916,119.8040,0,U,22236,999,79453,.1101897E-3,.1279E-4,0
SL-16 R/B,1992-093B,2026-06-09T18:02:08.085408,14.15464433,.00043618,71.0200,171.0012,199.5746,160.5211,0,U,22285,999,72618,-.6526838E-4,-.175E-5,0
COSMOS 2228,1992-094A,2026-06-09T19:18:46.714176,14.97559791,.00176554,82.5169,149.1141,357.8123,2.3019,0,U,22286,999,78984,.15618642E-3,.1854E-4,0
SL-16 R/B,1993-016B,2026-06-09T20:55:51.777984,14.15309510,.00106824,71.0080,21.5721,194.0517,166.0310,0,U,22566,999,71521,.11549495E-3,.177E-5,0
COSMOS 2242,1993-024A,2026-06-09T18:15:32.601600,14.96881241,.00160963,82.5178,178.6479,1.8222,358.3056,0,U,22626,999,79416,.12324238E-3,.1443E-4,0
SL-16 R/B,1993-059B,2026-06-09T10:39:00.306720,14.17245072,.00150228,70.9883,177.6336,67.5249,292.7464,0,U,22803,999,69253,.1560834E-3,.268E-5,0
ARIANE 40 R/B,1993-061H,2026-06-09T17:36:38.289600,14.32904775,.00109374,98.4820,227.7455,18.4202,341.7377,0,U,22830,999,70728,.7562514E-4,.164E-5,0
COSMOS 2278,1994-023A,2026-06-09T18:00:26.219808,14.14394049,.00105925,71.0544,342.4857,251.6645,108.3326,0,U,23087,999,65782,.20590005E-3,.347E-5,0
SL-16 R/B,1994-023B,2026-06-09T14:44:08.923488,14.15020188,.00032562,70.9994,237.8356,194.3180,165.7851,0,U,23088,999,65909,.1469478E-3,.237E-5,0
SL-16 R/B,1994-074B,2026-06-09T12:25:22.214208,14.79495792,.00051248,97.6994,187.5579,285.9819,202.7354,0,U,23343,999,70082,.56932283E-4,.376E-5,0
