COSMOS 2058             
1 20465U 90010A   26160.72332923  .00003175  00000+0  18329-3 0  9994
2 20465  82.4661 316.7166 0010157  26.2763 333.8980 15.11961806956143
SL-14 R/B               
1 20466U 90010B   26160.54679681  .00000341  00000+0  38379-4 0  9990
2 20466  82.5016 181.1203 0019774   1.8592 358.2693 14.83641389942100
SL-14 R/B               
1 20511U 90018B   26160.65298192  .00000366  00000+0  42835-4 0  9994
2 20511  82.5205 137.1497 0016979 144.9595 215.2740 14.82211248936208
HST                     
1 20580U 90037B   26160.25429042  .00004810  00000+0  15014-3 0  9993
2 20580  28.4711 134.7882 0001992  63.4353 296.6447 15.30659901787355
SL-16 R/B               
1 20625U 90046B   26160.59627720  .00000308  00000+0  18367-3 0  9995
2 20625  70.9986 104.8898 0013970 173.1579 186.9737 14.15022332861398
COSMOS 2084             
1 20663U 90055A   26160.69168094  .00001861  00000+0  14049-3 0  9990
2 20663  62.7911  21.6738 0005491 265.1399  94.9075 15.06085635950171
SL-6 R/B(2)             
1 20666U 90055D   26160.73566699  .00001540  00000+0  12390-3 0  9992
2 20666  62.7827 300.7324 0039429   4.1446 355.9972 15.03978234952030
SL-8 R/B                
1 20775U 90078B   26160.75176650  .00017897  00000+0  50367-3 0  9992
2 20775  82.9014 168.3607 0352583  63.4946 300.1974 14.92030123823019
SL-8 R/B                
1 21088U 91006B   26160.60525241  .00000043  00000+0  27388-4 0  9993
2 21088  82.9421 101.6738 0023361 134.7797  42.6081 13.77505354776726
OKEAN-3                 
1 21397U 91039A   26160.69360829  .00001747  00000+0  11998-3 0  9991
2 21397  82.5161 247.6476 0014557  24.6323 335.5596 15.05292217878873
COSMOS 2151             
1 21422U 91042A   26160.79057553  .00001252  00000+0  97295-4 0  9998
2 21422  82.4961 354.8198 0013771 106.1442 254.1299 15.00416760877002
SL-14 R/B               
1 21423U 91042B   26160.65793384  .00000370  00000+0  43745-4 0  9994
2 21423  82.4922 133.9563 0015635 301.9963  57.9731 14.81897740866698
ERS-1                   
1 21574U 91050A   26160.65799343  .00000251  00000+0  94844-4 0  9995
2 21574  98.7798 181.1719 0030759 290.2181  69.5699 14.39512451828966
ARIANE 40 R/B           
1 21610U 91050F   26160.69869148  .00000253  00000+0  87985-4 0  9991
2 21610  98.1877 209.4070 0003937 137.5039 222.6457 14.42952690832265
INTERCOSMOS 25          
1 21819U 91086A   26160.68368033  .00000472  00000+0  94046-4 0  9996
2 21819  82.6053 254.3499 1484286 278.5958  65.0252 12.12187121507839
SL-8 R/B                
1 21876U 92008B   26160.57327784  .00000097  00000+0  84117-4 0  9991
2 21876  82.9265 199.4485 0033435 236.6139 233.8751 13.75974842722051
SL-8 R/B                
1 21938U 92020B   26160.58578935  .00000046  00000+0  31893-4 0  9998
2 21938  82.9305  85.5032 0030159  43.1924 136.0800 13.75548116713769
USA 81                  
1 21949U 92023A   26160.73036998  .00000149  00000+0  47634-4 0  9992
2 21949  85.0077  78.3110 0002761  91.3338 268.8171 14.32396213107967
COSMOS 2219             
1 22219U 92076A   26160.76316332  .00000038  00000+0  44871-4 0  9994
2 22219  71.0574 185.5922 0016254  56.2657 304.0012 14.14095736731396
SL-16 R/B               
1 22220U 92076B   26160.81983995 -.00000197  00000+0 -74232-4 0  9999
2 22220  71.0006 354.3019 0014515 308.2634  67.2513 14.16871552734885
COSMOS 2221             
1 22236U 92080A   26160.58345743  .00001279  00000+0  11019-3 0  9991
2 22236  82.5032 191.0496 0012742 240.1916 119.8040 14.96514114794533
SL-16 R/B               
1 22285U 92093B   26160.75148247 -.00000175  00000+0 -65268-4 0  9990
2 22285  71.0200 171.0012 0004361 199.5746 160.5211 14.15464433726183
COSMOS 2228             
1 22286U 92094A   26160.80470734  .00001854  00000+0  15619-3 0  9994
2 22286  82.5169 149.1141 0017655 357.8123   2.3019 14.97559791789845
SL-16 R/B               
1 22566U 93016B   26160.87212706  .00000177  00000+0  11549-3 0  9995
2 22566  71.0080  21.5721 0010682 194.0517 166.0310 14.15309510715213
COSMOS 2242             
1 22626U 93024A   26160.76079400  .00001443  00000+0  12324-3 0  9990
2 22626  82.5178 178.6479 0016096   1.8222 358.3056 14.96881241794161
SL-16 R/B               
1 22803U 93059B   26160.44375355  .00000268  00000+0  15608-3 0  9990
2 22803  70.9883 177.6336 0015022  67.5249 292.7464 14.17245072692530
ARIANE 40 R/B           
1 22830U 93061H   26160.73377650  .00000164  00000+0  75625-4 0  9996
2 22830  98.4820 227.7455 0010937  18.4202 341.7377 14.32904775707285
COSMOS 2278             
1 23087U 94023A   26160.75030347  .00000347  00000+0  20590-3 0  9994
2 23087  71.0544 342.4857 0010592 251.6645 108.3326 14.14394049657822
SL-16 R/B               
1 23088U 94023B   26160.61399217  .00000237  00000+0  14695-3 0  9991
2 23088  70.9994 237.8356 0003256 194.3180 165.7851 14.15020188659099
SL-16 R/B               
1 23343U 94074B   26160.51761822  .00000376  00000+0  56932-4 0  9990
2 23343  97.6994 187.5579 0005124 285.9819 202.7354 14.79495792700824
